start=new Date('2023-02-05T00:00:00.000Z').valueOf();
sats=[{"REV_AT_EPOCH":"11071","CENTER_NAME":"EARTH","PERIOD":"95.592","RCS_SIZE":"LARGE","OBJECT_ID":"2021-009Z","MEAN_ELEMENT_THEORY":"SGP4","BSTAR":"0.00008161500000","TIME_SYSTEM":"UTC","LAUNCH_DATE":"2021-02-04","APOAPSIS":"548.292","EPHEMERIS_TYPE":"0","ELEMENT_SET_NO":"999","CLASSIFICATION_TYPE":"U","NORAD_CAT_ID":"47571","TLE_LINE1":"1 47571U 21009Z   23035.32901355  .00000934  00000-0  81615-4 0  9998","RA_OF_ASC_NODE":"41.5228","GP_ID":"224400923","MEAN_MOTION_DDOT":"0.0000000000000","OBJECT_TYPE":"PAYLOAD","ECCENTRICITY":"0.00015410","FILE":"3771952","MEAN_ANOMALY":"259.4810","COUNTRY_CODE":"US","MEAN_MOTION_DOT":"0.00000934","SITE":"AFETR","OBJECT_NAME":"STARLINK-1970","SEMIMAJOR_AXIS":"6925.360","EPOCH":"2023-02-04T07:53:46.770720","MEAN_MOTION":"15.06396255","TLE_LINE2":"2 47571  53.0533  41.5228 0001541 100.6353 259.4810 15.06396255110717","DECAY_DATE":null,"INCLINATION":"53.0533","PERIAPSIS":"546.158","REF_FRAME":"TEME","ARG_OF_PERICENTER":"100.6353"},{"OBJECT_NAME":"STARLINK-1971","SEMIMAJOR_AXIS":"6925.362","SITE":"AFETR","MEAN_MOTION":"15.06395674","TLE_LINE2":"2 47572  53.0540  41.6053 0001620 100.2135 259.9037 15.06395674110715","DECAY_DATE":null,"PERIAPSIS":"546.105","ARG_OF_PERICENTER":"100.2135","INCLINATION":"53.0540","REF_FRAME":"TEME","EPOCH":"2023-02-04T07:27:13.937472","ECCENTRICITY":"0.00016200","MEAN_MOTION_DDOT":"0.0000000000000","OBJECT_TYPE":"PAYLOAD","FILE":"3771952","MEAN_ANOMALY":"259.9037","MEAN_MOTION_DOT":"0.00005389","COUNTRY_CODE":"US","MEAN_ELEMENT_THEORY":"SGP4","BSTAR":"0.00038042000000","TIME_SYSTEM":"UTC","NORAD_CAT_ID":"47572","TLE_LINE1":"1 47572U 21009AA  23035.31057798  .00005389  00000-0  38042-3 0  9995","GP_ID":"224401175","RA_OF_ASC_NODE":"41.6053","LAUNCH_DATE":"2021-02-04","APOAPSIS":"548.349","ELEMENT_SET_NO":"999","CLASSIFICATION_TYPE":"U","EPHEMERIS_TYPE":"0","REV_AT_EPOCH":"11071","CENTER_NAME":"EARTH","PERIOD":"95.592","RCS_SIZE":"LARGE","OBJECT_ID":"2021-009AA"},{"SEMIMAJOR_AXIS":"6925.339","OBJECT_NAME":"STARLINK-1975","SITE":"AFETR","MEAN_MOTION":"15.06402961","TLE_LINE2":"2 47573  53.0559  41.6892 0001532  93.6672 266.4492 15.06402961111302","DECAY_DATE":null,"PERIAPSIS":"546.144","REF_FRAME":"TEME","INCLINATION":"53.0559","ARG_OF_PERICENTER":"93.6672","EPOCH":"2023-02-04T06:55:23.089152","ECCENTRICITY":"0.00015320","MEAN_MOTION_DDOT":"0.0000000000000","OBJECT_TYPE":"PAYLOAD","MEAN_ANOMALY":"266.4492","FILE":"3771199","COUNTRY_CODE":"US","MEAN_MOTION_DOT":"0.00000795","MEAN_ELEMENT_THEORY":"SGP4","TIME_SYSTEM":"UTC","BSTAR":"0.00007226600000","NORAD_CAT_ID":"47573","TLE_LINE1":"1 47573U 21009AB  23035.28846168  .00000795  00000-0  72266-4 0  9992","GP_ID":"224361148","RA_OF_ASC_NODE":"41.6892","APOAPSIS":"548.265","LAUNCH_DATE":"2021-02-04","ELEMENT_SET_NO":"999","CLASSIFICATION_TYPE":"U","EPHEMERIS_TYPE":"0","REV_AT_EPOCH":"11130","CENTER_NAME":"EARTH","PERIOD":"95.592","OBJECT_ID":"2021-009AB","RCS_SIZE":"LARGE"},{"BSTAR":"0.00002031200000","TIME_SYSTEM":"UTC","MEAN_ELEMENT_THEORY":"SGP4","ELEMENT_SET_NO":"999","EPHEMERIS_TYPE":"0","CLASSIFICATION_TYPE":"U","APOAPSIS":"548.270","LAUNCH_DATE":"2021-02-04","RA_OF_ASC_NODE":"71.3379","TLE_LINE1":"1 47574U 21009AC  23035.37047216  .00000021  00000-0  20312-4 0  9997","GP_ID":"224400174","NORAD_CAT_ID":"47574","REV_AT_EPOCH":"11029","CENTER_NAME":"EARTH","RCS_SIZE":"LARGE","OBJECT_ID":"2021-009AC","PERIOD":"95.591","SITE":"AFETR","OBJECT_NAME":"STARLINK-1976","SEMIMAJOR_AXIS":"6925.315","EPOCH":"2023-02-04T08:53:28.794624","DECAY_DATE":null,"ARG_OF_PERICENTER":"84.9321","PERIAPSIS":"546.090","REF_FRAME":"TEME","INCLINATION":"53.0549","TLE_LINE2":"2 47574  53.0549  71.3379 0001574  84.9321 275.1847 15.06411033110290","MEAN_MOTION":"15.06411033","OBJECT_TYPE":"PAYLOAD","MEAN_MOTION_DDOT":"0.0000000000000","ECCENTRICITY":"0.00015740","MEAN_MOTION_DOT":"0.00000021","COUNTRY_CODE":"US","FILE":"3771952","MEAN_ANOMALY":"275.1847"},{"OBJECT_ID":"2021-009AD","RCS_SIZE":"LARGE","PERIOD":"95.592","CENTER_NAME":"EARTH","REV_AT_EPOCH":"11036","GP_ID":"224439590","TLE_LINE1":"1 47575U 21009AD  23035.82384910  .00001129  00000-0  94664-4 0  9994","RA_OF_ASC_NODE":"69.3034","NORAD_CAT_ID":"47575","ELEMENT_SET_NO":"999","CLASSIFICATION_TYPE":"U","EPHEMERIS_TYPE":"0","LAUNCH_DATE":"2021-02-04","APOAPSIS":"548.209","TIME_SYSTEM":"UTC","BSTAR":"0.00009466400000","MEAN_ELEMENT_THEORY":"SGP4","COUNTRY_CODE":"US","MEAN_MOTION_DOT":"0.00001129","MEAN_ANOMALY":"276.4552","FILE":"3772514","ECCENTRICITY":"0.00014300","OBJECT_TYPE":"PAYLOAD","MEAN_MOTION_DDOT":"0.0000000000000","DECAY_DATE":null,"PERIAPSIS":"546.228","REF_FRAME":"TEME","ARG_OF_PERICENTER":"83.6600","INCLINATION":"53.0539","MEAN_MOTION":"15.06398367","TLE_LINE2":"2 47575  53.0539  69.3034 0001430  83.6600 276.4552 15.06398367110361","EPOCH":"2023-02-04T19:46:20.562240","SEMIMAJOR_AXIS":"6925.354","OBJECT_NAME":"STARLINK-1977","SITE":"AFETR"},{"SITE":"AFETR","SEMIMAJOR_AXIS":"6925.318","OBJECT_NAME":"STARLINK-1978","EPOCH":"2023-02-04T09:25:19.684416","TLE_LINE2":"2 47576  53.0524  31.2379 0001269  94.0454 266.0680 15.06409909110866","MEAN_MOTION":"15.06409909","REF_FRAME":"TEME","DECAY_DATE":null,"PERIAPSIS":"546.304","INCLINATION":"53.0524","ARG_OF_PERICENTER":"94.0454","MEAN_MOTION_DDOT":"0.0000000000000","OBJECT_TYPE":"PAYLOAD","ECCENTRICITY":"0.00012690","MEAN_ANOMALY":"266.0680","FILE":"3771952","COUNTRY_CODE":"US","MEAN_MOTION_DOT":"0.00001798","MEAN_ELEMENT_THEORY":"SGP4","TIME_SYSTEM":"UTC","BSTAR":"0.00013954000000","LAUNCH_DATE":"2021-02-04","APOAPSIS":"548.062","ELEMENT_SET_NO":"999","EPHEMERIS_TYPE":"0","CLASSIFICATION_TYPE":"U","NORAD_CAT_ID":"47576","TLE_LINE1":"1 47576U 21009AE  23035.39258894  .00001798  00000-0  13954-3 0  9992","GP_ID":"224401675","RA_OF_ASC_NODE":"31.2379","REV_AT_EPOCH":"11086","CENTER_NAME":"EARTH","PERIOD":"95.592","OBJECT_ID":"2021-009AE","RCS_SIZE":"LARGE"},{"NORAD_CAT_ID":"47577","TLE_LINE1":"1 47577U 21009AF  23035.30090354  .00001355  00000-0  10985-3 0  9999","GP_ID":"224401926","RA_OF_ASC_NODE":"46.6521","APOAPSIS":"548.286","LAUNCH_DATE":"2021-02-04","CLASSIFICATION_TYPE":"U","ELEMENT_SET_NO":"999","EPHEMERIS_TYPE":"0","MEAN_ELEMENT_THEORY":"SGP4","TIME_SYSTEM":"UTC","BSTAR":"0.00010985000000","PERIOD":"95.592","OBJECT_ID":"2021-009AF","RCS_SIZE":"LARGE","CENTER_NAME":"EARTH","REV_AT_EPOCH":"11064","MEAN_MOTION":"15.06401573","TLE_LINE2":"2 47577  53.0540  46.6521 0001556  87.5008 272.6159 15.06401573110644","PERIAPSIS":"546.131","DECAY_DATE":null,"INCLINATION":"53.0540","REF_FRAME":"TEME","ARG_OF_PERICENTER":"87.5008","EPOCH":"2023-02-04T07:13:18.065856","SEMIMAJOR_AXIS":"6925.344","OBJECT_NAME":"STARLINK-1979","SITE":"AFETR","MEAN_ANOMALY":"272.6159","FILE":"3771952","COUNTRY_CODE":"US","MEAN_MOTION_DOT":"0.00001355","ECCENTRICITY":"0.00015560","MEAN_MOTION_DDOT":"0.0000000000000","OBJECT_TYPE":"PAYLOAD"},{"ECCENTRICITY":"0.00014510","MEAN_MOTION_DDOT":"0.0000000000000","OBJECT_TYPE":"PAYLOAD","FILE":"3772514","MEAN_ANOMALY":"268.0122","COUNTRY_CODE":"US","MEAN_MOTION_DOT":"0.00000576","OBJECT_NAME":"STARLINK-1980","SEMIMAJOR_AXIS":"6925.342","SITE":"AFETR","MEAN_MOTION":"15.06402302","TLE_LINE2":"2 47578  53.0537  49.5918 0001451  92.1033 268.0122 15.06402302110636","DECAY_DATE":null,"REF_FRAME":"TEME","PERIAPSIS":"546.202","INCLINATION":"53.0537","ARG_OF_PERICENTER":"92.1033","EPOCH":"2023-02-04T18:13:27.369984","REV_AT_EPOCH":"11063","CENTER_NAME":"EARTH","PERIOD":"95.592","RCS_SIZE":"LARGE","OBJECT_ID":"2021-009AG","MEAN_ELEMENT_THEORY":"SGP4","BSTAR":"0.00005752800000","TIME_SYSTEM":"UTC","NORAD_CAT_ID":"47578","TLE_LINE1":"1 47578U 21009AG  23035.75934456  .00000576  00000-0  57528-4 0  9998","RA_OF_ASC_NODE":"49.5918","GP_ID":"224440824","LAUNCH_DATE":"2021-02-04","APOAPSIS":"548.211","EPHEMERIS_TYPE":"0","ELEMENT_SET_NO":"999","CLASSIFICATION_TYPE":"U"},{"BSTAR":"0.00008296500000","TIME_SYSTEM":"UTC","MEAN_ELEMENT_THEORY":"SGP4","GP_ID":"224439090","TLE_LINE1":"1 47579U 21009AH  23035.74183651  .00000955  00000-0  82965-4 0  9995","RA_OF_ASC_NODE":"39.6702","NORAD_CAT_ID":"47579","CLASSIFICATION_TYPE":"U","ELEMENT_SET_NO":"999","EPHEMERIS_TYPE":"0","LAUNCH_DATE":"2021-02-04","APOAPSIS":"548.170","REV_AT_EPOCH":"11077","CENTER_NAME":"EARTH","RCS_SIZE":"LARGE","OBJECT_ID":"2021-009AH","PERIOD":"95.592","OBJECT_NAME":"STARLINK-1981","SEMIMAJOR_AXIS":"6925.350","SITE":"AFETR","DECAY_DATE":null,"PERIAPSIS":"546.259","REF_FRAME":"TEME","INCLINATION":"53.0547","ARG_OF_PERICENTER":"91.2775","MEAN_MOTION":"15.06399664","TLE_LINE2":"2 47579  53.0547  39.6702 0001380  91.2775 268.8372 15.06399664110779","EPOCH":"2023-02-04T17:48:14.674464","ECCENTRICITY":"0.00013800","OBJECT_TYPE":"PAYLOAD","MEAN_MOTION_DDOT":"0.0000000000000","MEAN_MOTION_DOT":"0.00000955","COUNTRY_CODE":"US","FILE":"3772514","MEAN_ANOMALY":"268.8372"},{"MEAN_ELEMENT_THEORY":"SGP4","TIME_SYSTEM":"UTC","BSTAR":"0.00010518000000","LAUNCH_DATE":"2021-02-04","APOAPSIS":"548.151","EPHEMERIS_TYPE":"0","ELEMENT_SET_NO":"999","CLASSIFICATION_TYPE":"U","NORAD_CAT_ID":"47580","GP_ID":"224439340","TLE_LINE1":"1 47580U 21009AJ  23035.76303235  .00001285  00000-0  10518-3 0  9992","RA_OF_ASC_NODE":"49.5609","REV_AT_EPOCH":"11063","CENTER_NAME":"EARTH","PERIOD":"95.592","OBJECT_ID":"2021-009AJ","RCS_SIZE":"LARGE","SITE":"AFETR","SEMIMAJOR_AXIS":"6925.353","OBJECT_NAME":"STARLINK-1982","EPOCH":"2023-02-04T18:18:45.995040","MEAN_MOTION":"15.06398393","TLE_LINE2":"2 47580  53.0553  49.5609 0001346  93.4555 266.6587 15.06398393110633","DECAY_DATE":null,"PERIAPSIS":"546.286","ARG_OF_PERICENTER":"93.4555","INCLINATION":"53.0553","REF_FRAME":"TEME","MEAN_MOTION_DDOT":"0.0000000000000","OBJECT_TYPE":"PAYLOAD","ECCENTRICITY":"0.00013460","MEAN_ANOMALY":"266.6587","FILE":"3772514","MEAN_MOTION_DOT":"0.00001285","COUNTRY_CODE":"US"}];
